{
  "type": "FeatureCollection",
  "features": [
    {
      "type": "Feature",
      "properties": {
        "name": "Forest Lake"
      },
      "geometry": {
        "type": "Polygon",
        "coordinates": [
          [
            [
              123.7403651377267,
              13.12782596874229
            ],
            [
              123.7406037367828,
              13.12784499525643
            ],
            [
              123.7407289142752,
              13.12788688507238
            ],
            [
              123.7408464011529,
              13.12789462764139
            ],
            [
              123.740991875098,
              13.12787949360306
            ],
            [
              123.7411041243411,
              13.12780317205446
            ],
            [
              123.7413319691318,
              13.1275506140704
            ],
            [
              123.7417583862641,
              13.12783968768569
            ],
            [
              123.7417441848813,
              13.12808293463575
            ],
            [
              123.742417875768,
              13.12840957824183
            ],
            [
              123.7424363708249,
              13.12906879532538
            ],
            [
              123.7394451801504,
              13.12934857493199
            ],
            [
              123.7396684819317,
              13.12801018088061
            ],
            [
              123.7403651377267,
              13.12782596874229
            ]
          ]
        ]
      }
    }
  ]
}